{"type": "FeatureCollection", "features": [{"type": "Feature", "properties": {"norad_id": 22490, "name": "SCD 1", "group": "resource", "lat": -23.08944078142082, "lon": 120.30564988922056, "alt_km": 768.6578978256712, "timestamp": "2025-12-27T15:27:10.799609+00:00", "meta": {"OBJECT_NAME": "SCD 1", "OBJECT_ID": "1993-009B", "EPOCH": "2025-12-26T15:05:04.547040", "MEAN_MOTION": 14.46008245, "ECCENTRICITY": 0.0042179, "INCLINATION": 24.9674, "RA_OF_ASC_NODE": 192.9471, "ARG_OF_PERICENTER": 111.7084, "MEAN_ANOMALY": 283.5703, "EPHEMERIS_TYPE": 0, "CLASSIFICATION_TYPE": "U", "NORAD_CAT_ID": 22490, "ELEMENT_SET_NO": 999, "REV_AT_EPOCH": 73611, "BSTAR": 9.5318e-05, "MEAN_MOTION_DOT": 5.34e-06, "MEAN_MOTION_DDOT": 0}, "tle": {"line1": "1 22490U 93009B   25360.62852485  .00000534  00000+0  95318-4 0  9995", "line2": "2 22490  24.9674 192.9471 0042179 111.7084 283.5703 14.46008245736119"}}, "geometry": {"type": "Point", "coordinates": [120.30564988922056, -23.08944078142082]}}, {"type": "Feature", "properties": {"norad_id": 25397, "name": "TECHSAT 1B (GO-32)", "group": "resource", "lat": -50.328430531474005, "lon": 154.19264045118467, "alt_km": 818.5182483304598, "timestamp": "2025-12-27T15:27:10.799639+00:00", "meta": {"OBJECT_NAME": "TECHSAT 1B (GO-32)", "OBJECT_ID": "1998-043D", "EPOCH": "2025-12-26T21:30:44.500032", "MEAN_MOTION": 14.24381035, "ECCENTRICITY": 0.0001601, "INCLINATION": 98.9935, "RA_OF_ASC_NODE": 344.436, "ARG_OF_PERICENTER": 33.7104, "MEAN_ANOMALY": 326.4176, "EPHEMERIS_TYPE": 0, "CLASSIFICATION_TYPE": "U", "NORAD_CAT_ID": 25397, "ELEMENT_SET_NO": 999, "REV_AT_EPOCH": 42680, "BSTAR": 7.2286e-05, "MEAN_MOTION_DOT": 1.21e-06, "MEAN_MOTION_DDOT": 0}, "tle": {"line1": "1 25397U 98043D   25360.89634838  .00000121  00000+0  72286-4 0  9997", "line2": "2 25397  98.9935 344.4360 0001601  33.7104 326.4176 14.24381035426801"}}, "geometry": {"type": "Point", "coordinates": [154.19264045118467, -50.328430531474005]}}, {"type": "Feature", "properties": {"norad_id": 25504, "name": "SCD 2", "group": "resource", "lat": -22.980293701660777, "lon": -15.533157006947075, "alt_km": 753.2082062865238, "timestamp": "2025-12-27T15:27:10.799655+00:00", "meta": {"OBJECT_NAME": "SCD 2", "OBJECT_ID": "1998-060A", "EPOCH": "2025-12-27T04:18:28.238400", "MEAN_MOTION": 14.45431341, "ECCENTRICITY": 0.00170633, "INCLINATION": 24.9958, "RA_OF_ASC_NODE": 52.8597, "ARG_OF_PERICENTER": 105.275, "MEAN_ANOMALY": 285.8296, "EPHEMERIS_TYPE": 0, "CLASSIFICATION_TYPE": "U", "NORAD_CAT_ID": 25504, "ELEMENT_SET_NO": 999, "REV_AT_EPOCH": 43541, "BSTAR": 9.0144824e-05, "MEAN_MOTION_DOT": 5.05e-06, "MEAN_MOTION_DDOT": 0}, "tle": {"line1": "1 25504U 98060A   25361.17949350  .00000505  00000+0  90145-4 0  9996", "line2": "2 25504  24.9958  52.8597 0017063 105.2750 285.8296 14.45431341435415"}}, "geometry": {"type": "Point", "coordinates": [-15.533157006947075, -22.980293701660777]}}, {"type": "Feature", "properties": {"norad_id": 25757, "name": "DLR-TUBSAT", "group": "resource", "lat": 31.18047668857849, "lon": 171.90724539907887, "alt_km": 706.1230388328695, "timestamp": "2025-12-27T15:27:10.799668+00:00", "meta": {"OBJECT_NAME": "DLR-TUBSAT", "OBJECT_ID": "1999-029B", "EPOCH": "2025-12-17T13:22:10.787520", "MEAN_MOTION": 14.52359578, "ECCENTRICITY": 0.00141996, "INCLINATION": 98.6566, "RA_OF_ASC_NODE": 336.2196, "ARG_OF_PERICENTER": 177.8976, "MEAN_ANOMALY": 182.2281, "EPHEMERIS_TYPE": 0, "CLASSIFICATION_TYPE": "U", "NORAD_CAT_ID": 25757, "ELEMENT_SET_NO": 999, "REV_AT_EPOCH": 40688, "BSTAR": 3.7650132e-05, "MEAN_MOTION_DOT": 1.05e-06, "MEAN_MOTION_DDOT": 0}, "tle": {"line1": "1 25757U 99029B   25351.55706930  .00000105  00000+0  37650-4 0  9996", "line2": "2 25757  98.6566 336.2196 0014199 177.8976 182.2281 14.52359578406886"}}, "geometry": {"type": "Point", "coordinates": [171.90724539907887, 31.18047668857849]}}, {"type": "Feature", "properties": {"norad_id": 25994, "name": "TERRA", "group": "resource", "lat": -50.669773205001114, "lon": 62.62860437899336, "alt_km": 698.1496310026441, "timestamp": "2025-12-27T15:27:10.799680+00:00", "meta": {"OBJECT_NAME": "TERRA", "OBJECT_ID": "1999-068A", "EPOCH": "2025-12-27T06:10:03.159264", "MEAN_MOTION": 14.60918159, "ECCENTRICITY": 0.00033589, "INCLINATION": 97.9729, "RA_OF_ASC_NODE": 52.4073, "ARG_OF_PERICENTER": 65.3687, "MEAN_ANOMALY": 9.8105, "EPHEMERIS_TYPE": 0, "CLASSIFICATION_TYPE": "U", "NORAD_CAT_ID": 25994, "ELEMENT_SET_NO": 999, "REV_AT_EPOCH": 38450, "BSTAR": 0.00012185194, "MEAN_MOTION_DOT": 5.52e-06, "MEAN_MOTION_DDOT": 0}, "tle": {"line1": "1 25994U 99068A   25361.25698101  .00000552  00000+0  12185-3 0  9991", "line2": "2 25994  97.9729  52.4073 0003358  65.3687   9.8105 14.60918159384506"}}, "geometry": {"type": "Point", "coordinates": [62.62860437899336, -50.669773205001114]}}, {"type": "Feature", "properties": {"norad_id": 27004, "name": "MAROC-TUBSAT", "group": "resource", "lat": 56.85597708144988, "lon": 5.684556845613531, "alt_km": 995.3076729134409, "timestamp": "2025-12-27T15:27:10.799693+00:00", "meta": {"OBJECT_NAME": "MAROC-TUBSAT", "OBJECT_ID": "2001-056D", "EPOCH": "2025-12-27T01:22:59.257056", "MEAN_MOTION": 13.70253596, "ECCENTRICITY": 0.00193244, "INCLINATION": 99.7918, "RA_OF_ASC_NODE": 169.7536, "ARG_OF_PERICENTER": 222.2128, "MEAN_ANOMALY": 249.3798, "EPHEMERIS_TYPE": 0, "CLASSIFICATION_TYPE": "U", "NORAD_CAT_ID": 27004, "ELEMENT_SET_NO": 999, "REV_AT_EPOCH": 20261, "BSTAR": 3.1115265e-05, "MEAN_MOTION_DOT": -1.9e-07, "MEAN_MOTION_DDOT": 0}, "tle": {"line1": "1 27004U 01056D   25361.05763029 -.00000019  00000+0  31115-4 0  9999", "line2": "2 27004  99.7918 169.7536 0019324 222.2128 249.3798 13.70253596202617"}}, "geometry": {"type": "Point", "coordinates": [5.684556845613531, 56.85597708144988]}}, {"type": "Feature", "properties": {"norad_id": 27424, "name": "AQUA", "group": "resource", "lat": -51.644036693567976, "lon": 131.9972525349886, "alt_km": 695.3319655408541, "timestamp": "2025-12-27T15:27:10.799705+00:00", "meta": {"OBJECT_NAME": "AQUA", "OBJECT_ID": "2002-022A", "EPOCH": "2025-12-26T23:47:53.598912", "MEAN_MOTION": 14.61764548, "ECCENTRICITY": 0.00018494, "INCLINATION": 98.4058, "RA_OF_ASC_NODE": 322.1038, "ARG_OF_PERICENTER": 99.7002, "MEAN_ANOMALY": 302.1298, "EPHEMERIS_TYPE": 0, "CLASSIFICATION_TYPE": "U", "NORAD_CAT_ID": 27424, "ELEMENT_SET_NO": 999, "REV_AT_EPOCH": 25811, "BSTAR": 0.00027355086, "MEAN_MOTION_DOT": 1.315e-05, "MEAN_MOTION_DDOT": 0}, "tle": {"line1": "1 27424U 02022A   25360.99159258  .00001315  00000+0  27355-3 0  9993", "line2": "2 27424  98.4058 322.1038 0001849  99.7002 302.1298 14.61764548258111"}}, "geometry": {"type": "Point", "coordinates": [131.9972525349886, -51.644036693567976]}}, {"type": "Feature", "properties": {"norad_id": 28051, "name": "IRS-P6 (RESOURCESAT-1)", "group": "resource", "lat": 21.350224193259265, "lon": -135.40389161801306, "alt_km": 728.167384049274, "timestamp": "2025-12-27T15:27:10.799717+00:00", "meta": {"OBJECT_NAME": "IRS-P6 (RESOURCESAT-1)", "OBJECT_ID": "2003-046A", "EPOCH": "2025-12-27T06:59:18.553344", "MEAN_MOTION": 14.36080702, "ECCENTRICITY": 0.00650261, "INCLINATION": 98.2159, "RA_OF_ASC_NODE": 41.0223, "ARG_OF_PERICENTER": 137.2801, "MEAN_ANOMALY": 358.4506, "EPHEMERIS_TYPE": 0, "CLASSIFICATION_TYPE": "U", "NORAD_CAT_ID": 28051, "ELEMENT_SET_NO": 999, "REV_AT_EPOCH": 15585, "BSTAR": 4.3661346e-05, "MEAN_MOTION_DOT": 9e-07, "MEAN_MOTION_DDOT": 0}, "tle": {"line1": "1 28051U 03046A   25361.29118696  .00000090  00000+0  43661-4 0  9990", "line2": "2 28051  98.2159  41.0223 0065026 137.2801 358.4506 14.36080702155851"}}, "geometry": {"type": "Point", "coordinates": [-135.40389161801306, 21.350224193259265]}}, {"type": "Feature", "properties": {"norad_id": 28220, "name": "SHIYAN-1 (SY-1)", "group": "resource", "lat": -64.65365874836996, "lon": 81.0904201032488, "alt_km": 484.3689323715953, "timestamp": "2025-12-27T15:27:10.799728+00:00", "meta": {"OBJECT_NAME": "SHIYAN-1 (SY-1)", "OBJECT_ID": "2004-012A", "EPOCH": "2025-12-27T03:10:17.240736", "MEAN_MOTION": 15.28524905, "ECCENTRICITY": 0.00051661, "INCLINATION": 97.8914, "RA_OF_ASC_NODE": 63.5214, "ARG_OF_PERICENTER": 264.7953, "MEAN_ANOMALY": 95.2696, "EPHEMERIS_TYPE": 0, "CLASSIFICATION_TYPE": "U", "NORAD_CAT_ID": 28220, "ELEMENT_SET_NO": 999, "REV_AT_EPOCH": 18476, "BSTAR": 0.00061686102, "MEAN_MOTION_DOT": 0.00017068, "MEAN_MOTION_DDOT": 0}, "tle": {"line1": "1 28220U 04012A   25361.13214399  .00017068  00000+0  61686-3 0  9991", "line2": "2 28220  97.8914  63.5214 0005166 264.7953  95.2696 15.28524905184763"}}, "geometry": {"type": "Point", "coordinates": [81.0904201032488, -64.65365874836996]}}, {"type": "Feature", "properties": {"norad_id": 28376, "name": "AURA", "group": "resource", "lat": -41.14881764792065, "lon": -40.71101200781981, "alt_km": 697.2346422321752, "timestamp": "2025-12-27T15:27:10.799739+00:00", "meta": {"OBJECT_NAME": "AURA", "OBJECT_ID": "2004-026A", "EPOCH": "2025-12-27T05:46:52.407840", "MEAN_MOTION": 14.60980321, "ECCENTRICITY": 0.0001455, "INCLINATION": 98.3205, "RA_OF_ASC_NODE": 311.5366, "ARG_OF_PERICENTER": 90.1118, "MEAN_ANOMALY": 270.0249, "EPHEMERIS_TYPE": 0, "CLASSIFICATION_TYPE": "U", "NORAD_CAT_ID": 28376, "ELEMENT_SET_NO": 999, "REV_AT_EPOCH": 14110, "BSTAR": 0.0002713825, "MEAN_MOTION_DOT": 1.283e-05, "MEAN_MOTION_DDOT": 0}, "tle": {"line1": "1 28376U 04026A   25361.24088435  .00001283  00000+0  27138-3 0  9996", "line2": "2 28376  98.3205 311.5366 0001455  90.1118 270.0249 14.60980321141100"}}, "geometry": {"type": "Point", "coordinates": [-40.71101200781981, -41.14881764792065]}}]}